0 EUTE 12 WEST A (AB 1)
1 27508U 02040A   13281.32854159 -.00000111  00000-0  10000-3 0  1226
2 27508 000.0712 358.1243 0003653 212.8901 271.8809 01.00271293 40789
0 EUTE 12 WEST A (AB 1)
1 27508U 02040A   13283.11598076 -.00000116  00000-0  10000-3 0  1234
2 27508 000.0712 358.4611 0003668 212.4367 197.2395 01.00271536 40803
0 EUTE 12 WEST A (AB 1)
1 27508U 02040A   13284.11722917 -.00000120  00000-0  10000-3 0  1244
2 27508 000.0703 359.1844 0003670 211.5314 198.8591 01.00271622 40816
0 EUTE 12 WEST A (AB 1)
1 27508U 02040A   13286.16053961 -.00000125  00000-0  10000-3 0  1264
2 27508 000.0703 353.0058 0003852 217.3256 216.8475 01.00271572 40835
0 EUTE 12 WEST A (AB 1)
1 27508U 02040A   13289.13074248 -.00000124  00000-0  10000-3 0  1275
2 27508 000.0666 008.0355 0004681 247.8386 163.4881 01.00272788 40864
0 EUTE 12 WEST A (AB 1)
1 27508U 02040A   13290.93235052 -.00000121  00000-0  10000-3 0  1285
2 27508 000.0837 018.9882 0004261 199.9556 130.8105 01.00272675 40872
0 EUTE 12 WEST A (AB 1)
1 27508U 02040A   13293.21180443 -.00000116  00000-0  10000-3 0  1297
2 27508 000.0837 020.0945 0004359 200.5088 232.0112 01.00272904 40905
0 EUTE 12 WEST A (AB 1)
1 27508U 02040A   13295.04628122 -.00000113  00000-0  10000-3 0  1300
2 27508 000.0838 021.2654 0004305 199.2502 174.3288 01.00273041 40929
